NORAD_CAT_ID,OBJECT_NAME,OBJECT_TYPE,EPOCH,MEAN_MOTION,ECCENTRICITY,INCLINATION,RA_OF_ASC_NODE,ARG_OF_PERICENTER,MEAN_ANOMALY,BSTAR,MEAN_MOTION_DOT,MEAN_MOTION_DDOT,TLE_LINE0,TLE_LINE1,TLE_LINE2,SEMIMAJOR_AXIS,PERIOD,APOGEE,PERIGEE,DECAYED
56800.0,STARLINK-6036,PAYLOAD,2024-03-12 04:05:44,14.98329884,0.0002724,70.0017,18.8432,262.4881,97.5969,-5.4042e-05,-7.38e-06,0.0,0 STARLINK-6036,1 56800U 23078AK  24072.17064845 -.00000738  00000-0 -54042-4 0  9998,2 56800  70.0017  18.8432 0002724 262.4881  97.5969 14.98329884 43961,6950.193,96.107,573.951,570.165,0.0
56800.0,STARLINK-6036,PAYLOAD,2024-03-12 13:42:32,14.98331415,0.0002703,70.0018,17.8324,274.3052,85.7798,-3.0477e-05,-4.57e-06,0.0,0 STARLINK-6036,1 56800U 23078AK  24072.57120745 -.00000457  00000-0 -30477-4 0  9998,2 56800  70.0018  17.8324 0002703 274.3052  85.7798 14.98331415 43760,6950.189,96.107,573.932,570.175,0.0
56800.0,STARLINK-6036,PAYLOAD,2024-03-13 04:07:44,14.98330675,0.0002899,70.0013,16.3173,266.3316,93.7512,6.8315e-05,7.22e-06,0.0,0 STARLINK-6036,1 56800U 23078AK  24073.17204423  .00000722  00000-0  68315-4 0  9996,2 56800  70.0013  16.3173 0002899 266.3316  93.7512 14.98330675 44111,6950.191,96.107,574.071,570.041,0.0
56800.0,STARLINK-6036,PAYLOAD,2024-03-13 13:44:33,14.98316607,0.0002679,70.0009,15.3062,272.5926,87.4927,0.0002683,3.109e-05,0.0,0 STARLINK-6036,1 56800U 23078AK  24073.57260926  .00003109  00000-0  26830-3 0  9997,2 56800  70.0009  15.3062 0002679 272.5926  87.4927 14.98316607 43910,6950.234,96.108,573.961,570.237,0.0
56800.0,STARLINK-6036,PAYLOAD,2024-03-13 20:09:05,14.983154,0.0002923,70.0012,14.633,267.5151,92.5673,0.00024097,2.782e-05,0.0,0 STARLINK-6036,1 56800U 23078AK  24073.83964899  .00002782  00000-0  24097-3 0  9995,2 56800  70.0012  14.6330 0002923 267.5151  92.5673 14.98315400 44219,6950.238,96.108,574.135,570.071,0.0
56800.0,STARLINK-6036,PAYLOAD,2024-03-13 21:45:13,14.98325914,0.0003359,70.0011,14.4648,267.0127,93.0647,5.5462e-05,5.69e-06,0.0,0 STARLINK-6036,1 56800U 23078AK  24073.90640582  .00000569  00000-0  55462-4 0  9995,2 56800  70.0011  14.4648 0003359 267.0127  93.0647 14.98325914 43969,6950.206,96.107,574.405,569.736,0.0
56800.0,STARLINK-6036,PAYLOAD,2024-03-14 04:09:45,14.98337754,0.0003021,70.0006,13.7916,269.9162,90.1651,-6.734e-05,-8.97e-06,0.0,0 STARLINK-6036,1 56800U 23078AK  24074.17344395 -.00000897  00000-0 -67340-4 0  9992,2 56800  70.0006  13.7916 0003021 269.9162  90.1651 14.98337754 44261,6950.169,96.107,574.134,569.934,0.0
56800.0,STARLINK-6036,PAYLOAD,2024-03-14 05:45:53,14.9832738,0.0002823,70.0009,13.6234,266.6618,93.4218,0.00015438,1.749e-05,0.0,0 STARLINK-6036,1 56800U 23078AK  24074.24020383  .00001749  00000-0  15438-3 0  9993,2 56800  70.0009  13.6234 0002823 266.6618  93.4218 14.98327380 44017,6950.201,96.107,574.028,570.104,0.0
56800.0,STARLINK-6036,PAYLOAD,2024-03-14 20:11:03,14.98352641,0.0003219,69.9993,12.1071,270.2684,89.8106,0.0002227,2.567e-05,0.0,0 STARLINK-6036,1 56800U 23078AK  24074.84101849  .00002567  00000-0  22270-3 0  9997,2 56800  69.9993  12.1071 0003219 270.2684  89.8106 14.98352641 44364,6950.123,96.106,574.225,569.751,0.0
56800.0,STARLINK-6036,PAYLOAD,2024-03-14 21:47:10,14.98378526,0.0002627,70.0008,11.9401,251.3567,108.7307,0.00045452,5.341e-05,0.0,0 STARLINK-6036,1 56800U 23078AK  24074.90775589  .00005341  00000-0  45452-3 0  9992,2 56800  70.0008  11.9401 0002627 251.3567 108.7307 14.98378526 44117,6950.043,96.104,573.734,570.082,0.0
56800.0,STARLINK-6036,PAYLOAD,2024-03-15 04:11:46,14.98319227,0.0002925,70.0004,11.2672,265.9655,94.117,-0.00022022,-2.719e-05,0.0,0 STARLINK-6036,1 56800U 23078AK  24075.17484877 -.00002719  00000-0 -22022-3 0  9995,2 56800  70.0004  11.2672 0002925 265.9655  94.1170 14.98319227 44418,6950.226,96.108,574.124,570.058,0.0
56800.0,STARLINK-6036,PAYLOAD,2024-03-15 18:36:59,14.98317512,0.0003184,69.9999,9.7524,269.7721,90.3073,-0.00010403,-1.334e-05,0.0,0 STARLINK-6036,1 56800U 23078AK  24075.77568830 -.00001334  00000-0 -10403-3 0  9995,2 56800  69.9999   9.7524 0003184 269.7721  90.3073 14.98317512 44246,6950.232,96.108,574.309,569.884,0.0
56800.0,STARLINK-6036,PAYLOAD,2024-03-16 04:13:47,14.9832726,0.000293,70.0005,8.7436,266.9341,93.1483,-9.2096e-05,-1.192e-05,0.0,0 STARLINK-6036,1 56800U 23078AK  24076.17624373 -.00001192  00000-0 -92096-4 0  9996,2 56800  70.0005   8.7436 0002930 266.9341  93.1483 14.98327260 44565,6950.201,96.107,574.103,570.03,0.0
56800.0,STARLINK-6036,PAYLOAD,2024-03-16 05:49:55,14.98328241,0.0002921,70.0006,8.5749,265.7806,94.3019,-7.7779e-05,-1.021e-05,0.0,0 STARLINK-6036,1 56800U 23078AK  24076.24300267 -.00001021  00000-0 -77779-4 0  9999,2 56800  70.0006   8.5749 0002921 265.7806  94.3019 14.98328241 44315,6950.198,96.107,574.093,570.033,0.0
56800.0,STARLINK-6036,PAYLOAD,2024-03-16 20:15:07,14.98365289,0.0003063,70.0008,7.0592,273.0194,87.0615,-0.00067528,-8.148e-05,0.0,0 STARLINK-6036,1 56800U 23078AK  24076.84383791 -.00008148  00000-0 -67528-3 0  9995,2 56800  70.0008   7.0592 0003063 273.0194  87.0615 14.98365289 44669,6950.084,96.105,574.078,569.82,0.0
56800.0,STARLINK-6036,PAYLOAD,2024-03-16 21:51:15,14.98348616,0.000302,70.0008,6.8909,269.6528,90.4285,-0.00041052,-4.99e-05,0.0,0 STARLINK-6036,1 56800U 23078AK  24076.91059839 -.00004990  00000-0 -41052-3 0  9991,2 56800  70.0008   6.8909 0003020 269.6528  90.4285 14.98348616 44412,6950.135,96.106,574.099,569.901,0.0
56800.0,STARLINK-6036,PAYLOAD,2024-03-17 04:15:47,14.98357551,0.0002913,70.001,6.2177,272.926,87.1566,-0.00048184,-5.842e-05,0.0,0 STARLINK-6036,1 56800U 23078AK  24077.17763214 -.00005842  00000-0 -48184-3 0  9999,2 56800  70.0010   6.2177 0002913 272.9260  87.1566 14.98357551 44453,6950.108,96.105,573.997,569.948,0.0
56800.0,STARLINK-6036,PAYLOAD,2024-03-17 20:17:08,14.98324884,0.0002667,70.0011,4.535,265.8022,94.2832,6.8039e-05,7.19e-06,0.0,0 STARLINK-6036,1 56800U 23078AK  24077.84524231  .00000719  00000-0  68039-4 0  9995,2 56800  70.0011   4.5350 0002667 265.8022  94.2832 14.98324884 44819,6950.209,96.107,573.927,570.22,0.0
56800.0,STARLINK-6036,PAYLOAD,2024-03-17 21:53:17,14.98325058,0.0002669,70.0011,4.3667,265.429,94.6565,6.8094e-05,7.2e-06,0.0,0 STARLINK-6036,1 56800U 23078AK  24077.91200235  .00000720  00000-0  68094-4 0  9991,2 56800  70.0011   4.3667 0002669 265.4290  94.6565 14.98325058 44566,6950.208,96.107,573.928,570.218,0.0
56800.0,STARLINK-6036,PAYLOAD,2024-03-18 05:53:57,14.98327333,0.0002639,70.0013,3.5252,263.8653,96.2205,8.594e-05,9.33e-06,0.0,0 STARLINK-6036,1 56800U 23078AK  24078.24580111  .00000933  00000-0  85940-4 0  9997,2 56800  70.0013   3.5252 0002639 263.8653  96.2205 14.98327333 44614,6950.201,96.107,573.9,570.232,0.0
56800.0,STARLINK-6036,PAYLOAD,2024-03-18 21:55:18,14.98328514,0.000257,70.0017,1.8431,256.0421,104.0453,3.6257e-06,-5e-07,0.0,0 STARLINK-6036,1 56800U 23078AK  24078.91340312 -.00000050  00000-0  36257-5 0  9997,2 56800  70.0017   1.8431 0002570 256.0421 104.0453 14.98328514 44715,6950.197,96.107,573.849,570.276,0.0
56800.0,STARLINK-6036,PAYLOAD,2024-03-19 02:43:42,14.98328743,0.0002559,70.0016,1.3382,255.3377,104.7498,7.0794e-06,-8e-08,0.0,0 STARLINK-6036,1 56800U 23078AK  24079.11368301 -.00000008  00000-0  70794-5 0  9995,2 56800  70.0016   1.3382 0002559 255.3377 104.7498 14.98328743 45006,6950.197,96.107,573.84,570.283,0.0
56800.0,STARLINK-6036,PAYLOAD,2024-03-19 04:19:50,14.98330061,0.0002526,70.0017,1.1697,260.438,99.6493,2.5377e-05,2.1e-06,0.0,0 STARLINK-6036,1 56800U 23078AK  24079.18044204  .00000210  00000-0  25377-4 0  9995,2 56800  70.0017   1.1697 0002526 260.4380  99.6493 14.98330061 44753,6950.193,96.107,573.813,570.302,0.0
56800.0,STARLINK-6036,PAYLOAD,2024-03-19 21:57:20,14.98316263,0.0002322,70.0029,359.3201,249.9853,110.1056,-9.823e-05,-1.264e-05,0.0,0 STARLINK-6036,1 56800U 23078AK  24079.91481783 -.00001264  00000-0 -98230-4 0  9993,2 56800  70.0029 359.3201 0002322 249.9853 110.1056 14.98316263 45120,6950.235,96.108,573.714,570.487,0.0
56800.0,STARLINK-6036,PAYLOAD,2024-03-20 04:21:52,14.98318683,0.0002639,70.0017,358.6439,266.1805,93.9052,-9.4071e-05,-1.215e-05,0.0,0 STARLINK-6036,1 56800U 23078AK  24080.18185855 -.00001215  00000-0 -94071-4 0  9990,2 56800  70.0017 358.6439 0002639 266.1805  93.9052 14.98318683 44908,6950.228,96.108,573.927,570.259,0.0
56800.0,STARLINK-6036,PAYLOAD,2024-03-20 20:23:12,14.98335186,0.0003161,70.0002,356.9597,269.9349,90.1447,-5.031e-06,-1.53e-06,0.0,0 STARLINK-6036,1 56800U 23078AK  24080.84944765 -.00000153  00000-0 -50310-5 0  9995,2 56800  70.0002 356.9597 0003161 269.9349  90.1447 14.98335186 45267,6950.177,96.107,574.239,569.845,0.0
56800.0,STARLINK-6036,PAYLOAD,2024-03-20 21:59:20,14.98335684,0.0003104,70.0005,356.7916,269.7462,90.3341,3.4185e-06,-5.2e-07,0.0,0 STARLINK-6036,1 56800U 23078AK  24080.91620707 -.00000052  00000-0  34185-5 0  9999,2 56800  70.0005 356.7916 0003104 269.7462  90.3341 14.98335684 45015,6950.175,96.107,574.198,569.883,0.0
56800.0,STARLINK-6036,PAYLOAD,2024-03-21 04:23:51,14.98342087,0.0002823,70.0008,356.1186,268.5381,91.5455,0.00015385,1.744e-05,0.0,0 STARLINK-6036,1 56800U 23078AK  24081.18323771  .00001744  00000-0  15385-3 0  9997,2 56800  70.0008 356.1186 0002823 268.5381  91.5455 14.98342087 45312,6950.156,96.106,573.983,570.058,0.0
56800.0,STARLINK-6036,PAYLOAD,2024-03-21 20:25:13,14.98350066,0.0002312,70.0018,354.4397,254.2458,105.8446,-0.00028171,-3.454e-05,0.0,0 STARLINK-6036,1 56800U 23078AK  24081.85084744 -.00003454  00000-0 -28171-3 0  9994,2 56800  70.0018 354.4397 0002312 254.2458 105.8446 14.98350066 45414,6950.131,96.106,573.603,570.389,0.0
56800.0,STARLINK-6036,PAYLOAD,2024-03-21 22:01:21,14.98326913,0.0003235,69.9998,354.2683,273.3113,86.7676,7.4566e-05,7.97e-06,0.0,0 STARLINK-6036,1 56800U 23078AK  24081.91760979  .00000797  00000-0  74566-4 0  9997,2 56800  69.9998 354.2683 0003235 273.3113  86.7676 14.98326913 45167,6950.202,96.107,574.316,569.819,0.0
